NORAD_CAT_ID,OBJECT_NAME,OBJECT_TYPE,EPOCH,MEAN_MOTION,ECCENTRICITY,INCLINATION,RA_OF_ASC_NODE,ARG_OF_PERICENTER,MEAN_ANOMALY,BSTAR,MEAN_MOTION_DOT,MEAN_MOTION_DDOT,TLE_LINE0,TLE_LINE1,TLE_LINE2,SEMIMAJOR_AXIS,PERIOD,APOGEE,PERIGEE,DECAYED
53542.0,STARLINK-4489,PAYLOAD,2024-02-29 22:05:14,15.08840617,0.000142,53.2149,140.586,81.3017,278.8136,7.4249e-05,8.94e-06,0.0,0 STARLINK-4489,1 53542U 22101R   24060.92030725  .00000894  00000-0  74249-4 0  9996,2 53542  53.2149 140.5860 0001420  81.3017 278.8136 15.08840617 85464,6917.879,95.438,540.726,538.761,0.0
53542.0,STARLINK-4489,PAYLOAD,2024-03-01 12:23:42,15.08845454,0.0001487,53.2163,137.9112,86.3316,273.7846,0.00010689,1.414e-05,0.0,0 STARLINK-4489,1 53542U 22101R   24061.51646587  .00001414  00000-0  10689-3 0  9997,2 53542  53.2163 137.9112 0001487  86.3316 273.7846 15.08845454 85556,6917.864,95.437,540.757,538.7,0.0
53542.0,STARLINK-4489,PAYLOAD,2024-03-02 12:14:29,15.08851064,0.0001995,53.2163,133.4501,97.5948,262.5271,0.00011533,1.548e-05,0.0,0 STARLINK-4489,1 53542U 22101R   24062.51006282  .00001548  00000-0  11533-3 0  9997,2 53542  53.2163 133.4501 0001995  97.5948 262.5271 15.08851064 85707,6917.847,95.437,541.092,538.331,0.0
53542.0,STARLINK-4489,PAYLOAD,2024-03-03 12:05:17,15.08839348,0.0001696,53.2157,128.9899,77.0788,283.0394,5.5142e-05,5.9e-06,0.0,0 STARLINK-4489,1 53542U 22101R   24063.50367166  .00000590  00000-0  55142-4 0  9999,2 53542  53.2157 128.9899 0001696  77.0788 283.0394 15.08839348 85167,6917.882,95.438,540.921,538.574,0.0
53542.0,STARLINK-4489,PAYLOAD,2024-03-03 13:40:40,15.08842561,0.0001674,53.2162,128.6918,80.3713,279.7469,9.4769e-05,1.221e-05,0.0,0 STARLINK-4489,1 53542U 22101R   24063.56990990  .00001221  00000-0  94769-4 0  9992,2 53542  53.2162 128.6918 0001674  80.3713 279.7469 15.08842561 85866,6917.873,95.437,540.896,538.58,0.0
53542.0,STARLINK-4489,PAYLOAD,2024-03-04 10:20:40,15.08852248,0.0001938,53.2157,124.8298,80.8473,279.2738,0.0002925,4.372e-05,0.0,0 STARLINK-4489,1 53542U 22101R   24064.43102405  .00004372  00000-0  29250-3 0  9997,2 53542  53.2157 124.8298 0001938  80.8473 279.2738 15.08852248 85306,6917.843,95.437,541.049,538.367,0.0
53542.0,STARLINK-4489,PAYLOAD,2024-03-04 21:28:22,15.08843378,0.0001783,53.2164,122.7445,86.3701,273.7495,0.00015848,2.235e-05,0.0,0 STARLINK-4489,1 53542U 22101R   24064.89470765  .00002235  00000-0  15848-3 0  9998,2 53542  53.2164 122.7445 0001783  86.3701 273.7495 15.08843378 86065,6917.87,95.437,540.969,538.502,0.0
53542.0,STARLINK-4489,PAYLOAD,2024-03-05 13:22:15,15.08823879,0.000187,53.2174,119.7676,107.8243,252.2954,-0.00018672,-3.257e-05,0.0,0 STARLINK-4489,1 53542U 22101R   24065.55711881 -.00003257  00000-0 -18672-3 0  9994,2 53542  53.2174 119.7676 0001870 107.8243 252.2954 15.08823879 86162,6917.93,95.439,541.088,538.501,0.0
53542.0,STARLINK-4489,PAYLOAD,2024-03-06 03:40:43,15.08841308,0.000174,53.2166,117.094,98.597,261.522,9.4313e-05,1.213e-05,0.0,0 STARLINK-4489,1 53542U 22101R   24066.15327585  .00001213  00000-0  94313-4 0  9990,2 53542  53.2166 117.0940 0001740  98.5970 261.5220 15.08841308 85566,6917.876,95.437,540.945,538.538,0.0
53542.0,STARLINK-4489,PAYLOAD,2024-03-06 10:02:15,15.08850033,0.0001704,53.2163,115.9049,99.931,260.1874,0.0010222,0.00016022,0.0,0 STARLINK-4489,1 53542U 22101R   24066.41823874  .00016022  00000-0  10222-2 0  9990,2 53542  53.2163 115.9049 0001704  99.9310 260.1874 15.08850033 86299,6917.85,95.437,540.894,538.536,0.0
53542.0,STARLINK-4489,PAYLOAD,2024-03-07 03:31:30,15.08847755,0.0002346,53.2182,112.6328,104.0652,256.0601,0.00016105,2.276e-05,0.0,0 STARLINK-4489,1 53542U 22101R   24067.14687843  .00002276  00000-0  16105-3 0  9998,2 53542  53.2182 112.6328 0002346 104.0652 256.0601 15.08847755 85719,6917.857,95.437,541.345,538.099,0.0
53542.0,STARLINK-4489,PAYLOAD,2024-03-07 09:53:02,15.08846419,0.0001432,53.2162,111.4441,89.8132,270.3024,0.00041229,6.281e-05,0.0,0 STARLINK-4489,1 53542U 22101R   24067.41183939  .00006281  00000-0  41229-3 0  9990,2 53542  53.2162 111.4441 0001432  89.8132 270.3024 15.08846419 86443,6917.861,95.437,540.716,538.735,0.0
53542.0,STARLINK-4489,PAYLOAD,2024-03-08 03:22:17,15.08845941,0.0001431,53.2161,108.1747,93.5556,266.56,0.00038415,5.832e-05,0.0,0 STARLINK-4489,1 53542U 22101R   24068.14047903  .00005832  00000-0  38415-3 0  9995,2 53542  53.2161 108.1747 0001431  93.5556 266.5600 15.08845941 85866,6917.862,95.437,540.717,538.737,0.0
53542.0,STARLINK-4489,PAYLOAD,2024-03-08 08:08:26,15.0885078,0.0001509,53.216,107.2832,98.3521,261.7643,0.00030663,4.597e-05,0.0,0 STARLINK-4489,1 53542U 22101R   24068.33919626  .00004597  00000-0  30663-3 0  9990,2 53542  53.2160 107.2832 0001509  98.3521 261.7643 15.08850780 86582,6917.847,95.437,540.756,538.669,0.0
53542.0,STARLINK-4489,PAYLOAD,2024-03-08 19:16:08,15.08843844,0.0001627,53.2154,105.1972,92.143,267.9749,0.00015104,2.117e-05,0.0,0 STARLINK-4489,1 53542U 22101R   24068.80287314  .00002117  00000-0  15104-3 0  9993,2 53542  53.2154 105.1972 0001627  92.1430 267.9749 15.08843844 86655,6917.869,95.437,540.859,538.608,0.0
53542.0,STARLINK-4489,PAYLOAD,2024-03-09 11:10:00,15.08833931,0.0001536,53.2155,102.2272,90.5581,269.5587,3.5996e-05,2.85e-06,0.0,0 STARLINK-4489,1 53542U 22101R   24069.46528489  .00000285  00000-0  35996-4 0  9993,2 53542  53.2155 102.2272 0001536  90.5581 269.5587 15.08833931 86064,6917.899,95.438,540.827,538.701,0.0
53542.0,STARLINK-4489,PAYLOAD,2024-03-09 19:06:56,15.08836013,0.0001529,53.2152,100.7403,89.0781,271.0386,0.00029272,4.373e-05,0.0,0 STARLINK-4489,1 53542U 22101R   24069.79648612  .00004373  00000-0  29272-3 0  9991,2 53542  53.2152 100.7403 0001529  89.0781 271.0386 15.08836013 86808,6917.893,95.438,540.815,538.7,0.0
53542.0,STARLINK-4489,PAYLOAD,2024-03-10 11:00:47,15.08853724,0.0001691,53.2162,97.7642,86.1742,273.9443,0.00082344,0.00012846,0.0,0 STARLINK-4489,1 53542U 22101R   24070.45888489  .00012846  00000-0  82344-3 0  9997,2 53542  53.2162  97.7642 0001691  86.1742 273.9443 15.08853724 86212,6917.838,95.437,540.873,538.534,0.0
53542.0,STARLINK-4489,PAYLOAD,2024-03-10 18:57:43,15.08853294,0.0001517,53.2142,96.2782,88.7401,271.3765,0.00053388,8.222e-05,0.0,0 STARLINK-4489,1 53542U 22101R   24070.79008283  .00008222  00000-0  53388-3 0  9999,2 53542  53.2142  96.2782 0001517  88.7401 271.3765 15.08853294 86958,6917.84,95.437,540.754,538.655,0.0
53542.0,STARLINK-4489,PAYLOAD,2024-03-11 01:19:15,15.08852409,0.0001653,53.2147,95.088,90.1414,269.9767,0.00036441,5.518e-05,0.0,0 STARLINK-4489,1 53542U 22101R   24071.05504182  .00005518  00000-0  36441-3 0  9994,2 53542  53.2147  95.0880 0001653  90.1414 269.9767 15.08852409 86302,6917.842,95.437,540.851,538.564,0.0
53542.0,STARLINK-4489,PAYLOAD,2024-03-11 07:40:47,15.08852566,0.0001567,53.214,93.8978,93.2495,266.8676,0.00031953,4.803e-05,0.0,0 STARLINK-4489,1 53542U 22101R   24071.31999981  .00004803  00000-0  31953-3 0  9997,2 53542  53.2140  93.8978 0001567  93.2495 266.8676 15.08852566 87036,6917.842,95.437,540.791,538.623,0.0
53542.0,STARLINK-4489,PAYLOAD,2024-03-11 18:48:29,15.08844024,0.0001442,53.2132,91.8156,93.1713,266.9444,7.577e-05,9.18e-06,0.0,0 STARLINK-4489,1 53542U 22101R   24071.78367967  .00000918  00000-0  75770-4 0  9990,2 53542  53.2132  91.8156 0001442  93.1713 266.9444 15.08844024 86412,6917.868,95.437,540.731,538.736,0.0
53542.0,STARLINK-4489,PAYLOAD,2024-03-12 18:39:17,15.08838234,0.0001495,53.2151,87.3552,99.0065,261.1097,0.00015185,2.129e-05,0.0,0 STARLINK-4489,1 53542U 22101R   24072.77728356  .00002129  00000-0  15185-3 0  9992,2 53542  53.2151  87.3552 0001495  99.0065 261.1097 15.08838234 86569,6917.886,95.438,540.785,538.717,0.0
53542.0,STARLINK-4489,PAYLOAD,2024-03-13 04:11:35,15.08846675,0.000152,53.2147,85.5711,94.4889,265.6277,6.1816e-05,6.96e-06,0.0,0 STARLINK-4489,1 53542U 22101R   24073.17471735  .00000696  00000-0  61816-4 0  9993,2 53542  53.2147  85.5711 0001520  94.4889 265.6277 15.08846675 86627,6917.86,95.437,540.777,538.673,0.0
53542.0,STARLINK-4489,PAYLOAD,2024-03-13 07:22:21,15.08848446,0.0001621,53.2155,84.977,91.001,269.1168,7.6513e-05,9.3e-06,0.0,0 STARLINK-4489,1 53542U 22101R   24073.30719581  .00000930  00000-0  76513-4 0  9993,2 53542  53.2155  84.9770 0001621  91.0010 269.1168 15.08848446 87330,6917.855,95.437,540.841,538.598,0.0
53542.0,STARLINK-4489,PAYLOAD,2024-03-14 04:02:23,15.08837709,0.0001643,53.216,81.1103,91.3375,268.7806,8.588e-05,1.079e-05,0.0,0 STARLINK-4489,1 53542U 22101R   24074.16832238  .00001079  00000-0  85880-4 0  9995,2 53542  53.2160  81.1103 0001643  91.3375 268.7806 15.08837709 86777,6917.887,95.438,540.889,538.616,0.0
53542.0,STARLINK-4489,PAYLOAD,2024-03-14 07:13:09,15.08839164,0.0001641,53.2159,80.5153,92.1242,267.9938,9.2564e-05,1.185e-05,0.0,0 STARLINK-4489,1 53542U 22101R   24074.30080124  .00001185  00000-0  92564-4 0  9995,2 53542  53.2159  80.5153 0001641  92.1242 267.9938 15.08839164 87486,6917.883,95.438,540.883,538.613,0.0
53542.0,STARLINK-4489,PAYLOAD,2024-03-15 03:53:10,15.08833701,0.0001649,53.2161,76.65,92.1108,268.0073,-3.575e-05,-8.57e-06,0.0,0 STARLINK-4489,1 53542U 22101R   24075.16192950 -.00000857  00000-0 -35750-4 0  9992,2 53542  53.2161  76.6500 0001649  92.1108 268.0073 15.08833701 86921,6917.9,95.438,540.905,538.624,0.0
53542.0,STARLINK-4489,PAYLOAD,2024-03-15 07:03:56,15.08836044,0.000163,53.2161,76.0549,91.0573,269.0606,-4.3361e-05,-9.78e-06,0.0,0 STARLINK-4489,1 53542U 22101R   24075.29440822 -.00000978  00000-0 -43361-4 0  9991,2 53542  53.2161  76.0549 0001630  91.0573 269.0606 15.08836044 87637,6917.892,95.438,540.885,538.63,0.0
53542.0,STARLINK-4489,PAYLOAD,2024-03-16 03:43:57,15.08837552,0.0001625,53.2167,72.1918,96.5694,263.5483,7.4106e-05,8.91e-06,0.0,0 STARLINK-4489,1 53542U 22101R   24076.15552560  .00000891  00000-0  74106-4 0  9993,2 53542  53.2167  72.1918 0001625  96.5694 263.5483 15.08837552 87073,6917.888,95.438,540.877,538.629,0.0
